OBJECT_NAME,OBJECT_ID,EPOCH,MEAN_MOTION,ECCENTRICITY,INCLINATION,RA_OF_ASC_NODE,ARG_OF_PERICENTER,MEAN_ANOMALY,EPHEMERIS_TYPE,CLASSIFICATION_TYPE,NORAD_CAT_ID,ELEMENT_SET_NO,REV_AT_EPOCH,BSTAR,MEAN_MOTION_DOT,MEAN_MOTION_DDOT
FLOCK 4Q-24,2023-174BL,2024-07-07T18:28:59.534400,15.20454592,.0012066,97.4534,264.1817,145.3747,214.8276,0,U,58314,999,3684,.59097E-3,.12865E-3,0
FLOCK 4Q-6,2023-174BM,2024-07-07T17:31:56.014752,15.20195992,.0011681,97.4532,264.0639,144.8144,215.3865,0,U,58315,999,3683,.92232E-3,.19983E-3,0
FLOCK 4Q-34,2023-174BN,2024-07-07T03:43:07.243680,15.20565556,.0012767,97.4554,263.6674,149.6079,210.5899,0,U,58316,999,3675,.45798E-3,.9985E-4,0
FLOCK 4Q-7,2023-174BQ,2024-07-07T18:25:21.738144,15.20313110,.0013086,97.4602,264.3893,146.1777,214.0296,0,U,58318,999,3684,.44829E-3,.9701E-4,0
FLOCK 4Q-15,2023-174BR,2024-07-07T04:23:13.532064,15.20820033,.0012981,97.4595,263.9249,146.5409,213.6649,0,U,58319,999,3676,.39492E-3,.8664E-4,0
FLOCK 4Q-2,2023-174BS,2024-07-08T03:52:36.281856,15.20211274,.00122,97.4546,264.6085,142.5188,217.6900,0,U,58320,999,3690,.42867E-3,.9243E-4,0
FLOCK 4Q-9,2023-174BU,2024-07-07T03:43:39.566784,15.20409474,.0012377,97.4564,263.7018,146.0105,214.1925,0,U,58322,999,3675,.40954E-3,.8879E-4,0
FLOCK 4Q-10,2023-174BW,2024-07-07T19:00:28.399104,15.20689679,.0012219,97.4567,264.3964,143.1435,217.0643,0,U,58324,999,3685,.41536E-3,.908E-4,0
FLOCK 4Q-4,2023-174BZ,2024-07-07T03:45:32.680800,15.20185369,.0010689,97.4540,263.4726,163.2961,196.8628,0,U,58327,999,3674,.32988E-3,.7086E-4,0
FLOCK 4Q-13,2023-174CA,2024-07-07T04:04:08.907456,15.20208715,.0012298,97.4608,263.6624,165.3085,194.8510,0,U,58328,999,3674,.40217E-3,.8666E-4,0
FLOCK 4Q-21,2023-174CB,2024-07-07T04:32:10.339584,15.20572810,.001182,97.4604,263.7846,164.3631,195.7972,0,U,58329,999,3675,.38357E-3,.8349E-4,0
